[{"Mobile":"13767114212","QueryResult":"True","Province":"江西","City":"南昌","AreaCode":"0791","PostCode":"330000","Corp":"中国移动","Card":"GSM"}{"Mobile":"13899668673","QueryResult":"True","Province":"新疆","City":"昌吉","AreaCode":"0994","PostCode":"831100","Corp":"中国移动","Card":"GSM"},{"Mobile":"18701490826","QueryResult":"True","Province":"北京","City":"北京","AreaCode":"010","PostCode":"100000","Corp":"中国移动","Card":"GSM/3G"},{"Mobile":"13877143315","QueryResult":"True","Province":"广西","City":"南宁","AreaCode":"0771","PostCode":"530000","Corp":"中国移动","Card":"GSM"},{"Mobile":"13984357103","QueryResult":"True","Province":"贵州","City":"贵阳","AreaCode":"0851","PostCode":"550000","Corp":"中国移动","Card":"GSM"},{"Mobile":"15281500336","QueryResult":"True","Province":"四川","City":"阿坝","AreaCode":"0837","PostCode":"624000","Corp":"中国移动","Card":"GSM"},{"Mobile":"13976662006","QueryResult":"True","Province":"海南","City":"海口","AreaCode":"0898","PostCode":"571000","Corp":"中国移动","Card":"GSM"},{"Mobile":"13423461804","QueryResult":"True","Province":"广东","City":"东莞","AreaCode":"0769","PostCode":"511700","Corp":"中国移动","Card":"GSM"},{"Mobile":"13691555862","QueryResult":"True","Province":"北京","City":"北京","AreaCode":"010","PostCode":"100000","Corp":"中国移动","Card":"GSM"},{"Mobile":"13536627920","QueryResult":"True","Province":"广东","City":"佛山","AreaCode":"0757","PostCode":"528000","Corp":"中国移动","Card":"GSM"},{"Mobile":"13515773091","QueryResult":"True","Province":"浙江","City":"温州","AreaCode":"0577","PostCode":"325000","Corp":"中国移动","Card":"GSM"},{"Mobile":"15235603326","QueryResult":"True","Province":"山西","City":"晋城","AreaCode":"0356","PostCode":"048000","Corp":"中国移动","Card":"GSM"},{"Mobile":"13518520740","QueryResult":"True","Province":"贵州","City":"遵义","AreaCode":"0852","PostCode":"563000","Corp":"中国移动","Card":"GSM"},{"Mobile":"15283164961","QueryResult":"True","Province":"四川","City":"宜宾","AreaCode":"0831","PostCode":"644000","Corp":"中国移动","Card":"GSM"},{"Mobile":"15208799916","QueryResult":"True","Province":"云南","City":"普洱","AreaCode":"0879","PostCode":"665000","Corp":"中国移动","Card":"GSM"},{"Mobile":"13519130774","QueryResult":"True","Province":"陕西","City":"西安","AreaCode":"029","PostCode":"710000","Corp":"中国移动","Card":"GSM"},{"Mobile":"18279018006","QueryResult":"True","Province":"江西","City":"宜春","AreaCode":"0795","PostCode":"336000","Corp":"中国移动","Card":"GSM"},{"Mobile":"13985537495","QueryResult":"True","Province":"贵州","City":"贵阳","AreaCode":"0851","PostCode":"550000","Corp":"中国移动","Card":"GSM"},{"Mobile":"18299209149","QueryResult":"True","Province":"新疆","City":"伊犁","AreaCode":"0999","PostCode":"835000","Corp":"中国移动","Card":"GSM"},{"Mobile":"15924914239","QueryResult":"True","Province":"云南","City":"曲靖","AreaCode":"0874","PostCode":"655000","Corp":"中国移动","Card":"GSM"},{"Mobile":"13899403135","QueryResult":"True","Province":"","City":"","AreaCode":"","PostCode":"","Corp":"中国移动","Card":"GSM"},{"Mobile":"15030145491","QueryResult":"True","Province":"","City":"","AreaCode":"","PostCode":"","Corp":"中国移动","Card":"GSM"},{"Mobile":"15292756421","QueryResult":"True","Province":"","City":"","AreaCode":"","PostCode":"","Corp":"中国移动","Card":"GSM"},{"Mobile":"18728379801","QueryResult":"True","Province":"","City":"","AreaCode":"","PostCode":"","Corp":"中国移动","Card":"GSM/3G"},{"Mobile":"13610371976","QueryResult":"True","Province":"","City":"","AreaCode":"","PostCode":"","Corp":"中国移动","Card":"GSM"},{"Mobile":"15894151730","QueryResult":"True","Province":"","City":"","AreaCode":"","PostCode":"","Corp":"中国移动","Card":"GSM"},{"Mobile":"13976813186","QueryResult":"True","Province":"","City":"","AreaCode":"","PostCode":"","Corp":"中国移动","Card":"GSM"},{"Mobile":"13651291098","QueryResult":"True","Province":"","City":"","AreaCode":"","PostCode":"","Corp":"中国移动","Card":"GSM"},{"Mobile":"13619960212","QueryResult":"True","Province":"","City":"","AreaCode":"","PostCode":"","Corp":"中国移动","Card":"GSM"},{"Mobile":"15879442161","QueryResult":"True","Province":"","City":"","AreaCode":"","PostCode":"","Corp":"中国移动","Card":"GSM"},{"Mobile":"18776080461","QueryResult":"True","Province":"","City":"","AreaCode":"","PostCode":"","Corp":"中国移动","Card":"GSM/3G"},{"Mobile":"15157592976","QueryResult":"True","Province":"","City":"","AreaCode":"","PostCode":"","Corp":"中国移动","Card":"GSM"},{"Mobile":"13976813186","QueryResult":"True","Province":"","City":"","AreaCode":"","PostCode":"","Corp":"中国移动","Card":"GSM"},{"Mobile":"15266170924","QueryResult":"True","Province":"","City":"","AreaCode":"","PostCode":"","Corp":"中国移动","Card":"GSM"},{"Mobile":"15219306811","QueryResult":"True","Province":"","City":"","AreaCode":"","PostCode":"","Corp":"中国移动","Card":"GSM"},{"Mobile":"13692426779","QueryResult":"True","Province":"","City":"","AreaCode":"","PostCode":"","Corp":"中国移动","Card":"GSM"},{"Mobile":"15941692516","QueryResult":"True","Province":"","City":"","AreaCode":"","PostCode":"","Corp":"中国移动","Card":"GSM"},{"Mobile":"13787891646","QueryResult":"True","Province":"","City":"","AreaCode":"","PostCode":"","Corp":"中国移动","Card":"GSM"},{"Mobile":"13703686433","QueryResult":"True","Province":"","City":"","AreaCode":"","PostCode":"","Corp":"中国移动","Card":"GSM"},{"Mobile":"13108403995","QueryResult":"True","Province":"","City":"","AreaCode":"","PostCode":"","Corp":"中国联通","Card":"GSM"},{"Mobile":"18787533033","QueryResult":"True","Province":"","City":"","AreaCode":"","PostCode":"","Corp":"中国移动","Card":"GSM/3G"},{"Mobile":"18765522614","QueryResult":"True","Province":"","City":"","AreaCode":"","PostCode":"","Corp":"中国移动","Card":"GSM/3G"},{"Mobile":"13762377833","QueryResult":"True","Province":"","City":"","AreaCode":"","PostCode":"","Corp":"中国移动","Card":"GSM"},{"Mobile":"15834764799","QueryResult":"True","Province":"","City":"","AreaCode":"","PostCode":"","Corp":"中国移动","Card":"GSM"},{"Mobile":"13976813186","QueryResult":"True","Province":"","City":"","AreaCode":"","PostCode":"","Corp":"中国移动","Card":"GSM"},{"Mobile":"13960953509","QueryResult":"True","Province":"福建","City":"福州","AreaCode":"0591","PostCode":"350000","Corp":"中国移动","Card":"GSM"},{"Mobile":"13694232224","QueryResult":"True","Province":"广东","City":"广州","AreaCode":"020","PostCode":"510000","Corp":"中国移动","Card":"GSM"},{"Mobile":"15259036763","QueryResult":"True","Province":"福建","City":"龙岩","AreaCode":"0597","PostCode":"364000","Corp":"中国移动","Card":"GSM"},{"Mobile":"15026218603","QueryResult":"True","Province":"新疆","City":"博尔塔拉","AreaCode":"0909","PostCode":"833400","Corp":"中国移动","Card":"GSM"},{"Mobile":"13873163592","QueryResult":"True","Province":"湖南","City":"长沙","AreaCode":"0731","PostCode":"410000","Corp":"中国移动","Card":"GSM"},{"Mobile":"13679772655","QueryResult":"True","Province":"广东","City":"佛山","AreaCode":"0757","PostCode":"528000","Corp":"中国移动","Card":"GSM"},{"Mobile":"15026218603","QueryResult":"True","Province":"新疆","City":"博尔塔拉","AreaCode":"0909","PostCode":"833400","Corp":"中国移动","Card":"GSM"},{"Mobile":"15805930204","QueryResult":"True","Province":"福建","City":"厦门","AreaCode":"0592","PostCode":"361000","Corp":"中国移动","Card":"GSM"},{"Mobile":"15516357320","QueryResult":"True","Province":"河南","City":"洛阳","AreaCode":"0379","PostCode":"471000","Corp":"中国联通","Card":"GSM"},{"Mobile":"13577044058","QueryResult":"True","Province":"云南","City":"昆明","AreaCode":"0871","PostCode":"650000","Corp":"中国移动","Card":"GSM"},{"Mobile":"15273490157","QueryResult":"True","Province":"湖南","City":"衡阳","AreaCode":"0734","PostCode":"421000","Corp":"中国移动","Card":"GSM"},{"Mobile":"15972704627","QueryResult":"True","Province":"湖北","City":"宜昌","AreaCode":"0717","PostCode":"443000","Corp":"中国移动","Card":"GSM"},{"Mobile":"18725566353","QueryResult":"True","Province":"安徽","City":"安庆","AreaCode":"0556","PostCode":"246000","Corp":"中国移动","Card":"GSM/3G"},{"Mobile":"13264978041","QueryResult":"True","Province":"湖北","City":"江汉天门仙桃潜江","AreaCode":"0728","PostCode":"431700","Corp":"中国联通","Card":"GSM"},